EWS-G2 (GOES 15)        
1 36411U 10008A   24037.80395012  .00000047  00000+0  00000+0 0  9997
2 36411   0.0469 256.4228 0004228  20.4930 210.4788  1.00267441 51000
COMS 1                  
1 36744U 10032A   24037.88877851 -.00000337  00000+0  00000+0 0  9990
2 36744   2.5939  86.4646 0000808 247.6199 250.5347  1.00270254 42454
FENGYUN 3B              
1 37214U 10059A   24037.98314962  .00000181  00000+0  11838-3 0  9993
2 37214  99.0696  64.1577 0023146 103.0161 278.9232 14.14440051685664
SUOMI NPP               
1 37849U 11061A   24037.87122494  .00000169  00000+0  10070-3 0  9999
2 37849  98.7290 337.8486 0000794  64.4085 295.7173 14.19552615636248
FENGYUN 2F              
1 38049U 12002A   24037.60331072 -.00000349  00000+0  00000+0 0  9992
2 38049   5.2650  74.4353 0001986  24.4008   6.4187  1.00261261 44252
METEOSAT-10 (MSG-3)     
1 38552U 12035B   24037.86338664  .00000003  00000+0  00000+0 0  9995
2 38552   2.6724  59.7734 0001510 287.6800 100.1522  1.00265897 42228
METOP-B                 
1 38771U 12049A   24037.90006672  .00000216  00000+0  11849-3 0  9992
2 38771  98.6475  97.9585 0001582  80.8122 279.3234 14.21465748590902
FENGYUN 3C              
1 39260U 13052A   24037.96520906  .00000215  00000+0  12938-3 0  9997
2 39260  98.4279  44.5403 0010861 351.7653   8.3343 14.16143227536698
METEOR-M 2              
1 40069U 14037A   24037.91518535  .00000285  00000+0  15102-3 0  9993
2 40069  98.4316  38.0611 0006254  30.3560 329.7979 14.20885824496989
HIMAWARI-8              
1 40267U 14060A   24037.81970124 -.00000267  00000+0  00000+0 0  9992
2 40267   0.0517 250.1727 0000529  78.9900 243.0127  1.00270149 34120
FENGYUN 2G              
1 40367U 14090A   24037.88314081 -.00000296  00000+0  00000+0 0  9999
2 40367   3.4521  83.0589 0001661  44.4399  66.5259  1.00278669 33364
METEOSAT-11 (MSG-4)     
1 40732U 15034A   24037.86512709  .00000071  00000+0  00000+0 0  9999
2 40732   1.0735  64.6715 0002528 205.1985 187.2479  1.00272809 31382
ELEKTRO-L 2             
1 41105U 15074A   24037.86042787 -.00000110  00000+0  00000+0 0  9997
2 41105   4.5046  81.0544 0002989 203.5478 147.1242  1.00270318 29869
HIMAWARI-9              
1 41836U 16064A   24037.81970124 -.00000265  00000+0  00000+0 0  9999
2 41836   0.0015  55.9894 0000835 273.0111 243.2976  1.00272310 26569
GOES 16                 
1 41866U 16071A   24037.84833174 -.00000238  00000+0  00000+0 0  9996
2 41866   0.0910 265.8432 0001047 100.2708   0.5374  1.00271419 26469
FENGYUN 4A              
1 41882U 16077A   24037.81247834 -.00000321  00000+0  00000+0 0  9992
2 41882   0.1235  73.0853 0004897 342.3261 118.0915  1.00277229 26295
CYGFM05                 
1 41884U 16078A   24037.46977546  .00009762  00000+0  39338-3 0  9993
2 41884  34.9540  53.0379 0011289  78.9739 281.2245 15.24019287395957
CYGFM04                 
1 41885U 16078B   24037.40224902  .00010392  00000+0  40863-3 0  9995
2 41885  34.9487  38.7218 0009957 106.8795 253.3012 15.24837151396021
CYGFM02                 
1 41886U 16078C   24037.44831975  .00010863  00000+0  42647-3 0  9999
2 41886  34.9568  40.9097 0010804  95.3744 264.8203 15.24876140396111
CYGFM01                 
1 41887U 16078D   24037.42773806  .00010220  00000+0  41493-3 0  9991
2 41887  34.9512  56.8179 0011959  77.2456 282.9594 15.23753782395881
CYGFM08                 
1 41888U 16078E   24037.45663073  .00010498  00000+0  41762-3 0  9995
2 41888  34.9479  45.9672 0011031  94.8285 265.3689 15.24440801396053
CYGFM07                 
1 41890U 16078G   24037.33515910  .00010560  00000+0  41414-3 0  9995
2 41890  34.9512  38.6483 0009466 103.9133 256.2635 15.24929625396029
CYGFM03                 
1 41891U 16078H   24037.42932037  .00010546  00000+0  41440-3 0  9992
2 41891  34.9527  39.1182 0008854  97.1620 263.0101 15.24869367396023
FENGYUN 3D              
1 43010U 17072A   24037.90193873  .00000201  00000+0  11720-3 0  9997
2 43010  98.8941 351.9143 0001823  27.9390 332.1883 14.19278775322791
NOAA 20                 
1 43013U 17073A   24037.90624049  .00000143  00000+0  88469-4 0  9995
2 43013  98.7369 337.8567 0001210 114.5321 245.5982 14.19542192322274
GOES 17                 
1 43226U 18022A   24037.66915969 -.00000080  00000+0  00000+0 0  9994
2 43226   0.0118 123.7194 0001347 172.2113 336.5548  1.00271069 21786
FENGYUN 2H              
1 43491U 18050A   24037.87618919 -.00000121  00000+0  00000+0 0  9993
2 43491   0.8010  88.2652 0001050 345.2145  97.7995  1.00269769 20809
METOP-C                 
1 43689U 18087A   24037.86661220  .00000215  00000+0  11803-3 0  9994
2 43689  98.6994  98.8909 0003617  98.0222 262.1366 14.21506832272469
GEO-KOMPSAT-2A          
1 43823U 18100A   24037.88877851 -.00000335  00000+0  00000+0 0  9998
2 43823   0.0143  89.6235 0001118 321.4033 173.6839  1.00271235 18995
METEOR-M2 2             
1 44387U 19038A   24037.88483913  .00000101  00000+0  63578-4 0  9991
2 44387  98.8100   6.7127 0001447  27.0381 333.0872 14.23848909238708
ARKTIKA-M 1             
1 47719U 21016A   24032.66912720  .00000188  00000+0  00000+0 0  9997
2 47719  63.1417 167.2180 6903684 269.0335  18.1225  2.00601353 21407
FENGYUN 3E              
1 49008U 21062A   24037.91160344  .00000071  00000+0  54458-4 0  9993
2 49008  98.7306  40.9644 0002490  66.2131 293.9307 14.19727021134361
GOES 18                 
1 51850U 22021A   24037.76444181  .00000107  00000+0  00000+0 0  9993
2 51850   0.0069 323.1649 0000032 315.5989 355.8026  1.00269375  7143
NOAA 21 (JPSS-2)        
1 54234U 22150A   24037.85210522  .00000179  00000+0  10542-3 0  9990
2 54234  98.7403 337.3694 0001408  96.6620 263.4716 14.19570789 64345
METEOSAT-12 (MTG-I1)    
1 54743U 22170C   24037.86321260  .00000002  00000+0  00000+0 0  9999
2 54743   0.3872   1.4375 0000066 181.4617 263.9313  1.00270060  4349
TIANMU-1 03             
1 55973U 23039A   24037.88614995  .00012625  00000+0  53618-3 0  9993
2 55973  97.4497 189.1387 0012340 205.9325 154.1295 15.23139818 48857
TIANMU-1 04             
1 55974U 23039B   24037.93360277  .00011586  00000+0  49307-3 0  9996
2 55974  97.4417 188.8882 0009352 203.3757 156.7055 15.23119403 48856
TIANMU-1 05             
1 55975U 23039C   24037.91922294  .00011566  00000+0  49249-3 0  9991
2 55975  97.4465 189.1117 0005575 193.1228 166.9865 15.23125971 48845
TIANMU-1 06             
1 55976U 23039D   24037.90347848  .00012217  00000+0  52012-3 0  9993
2 55976  97.4479 189.1880 0005028 194.6791 165.4300 15.23121976 48841
METEOR-M2 3             
1 57166U 23091A   24037.92096342  .00000039  00000+0  36313-4 0  9992
2 57166  98.7333  93.6558 0004680 139.9527 220.1997 14.23869578 31940
TIANMU-1 07             
1 57399U 23101A   24037.89411994  .00007002  00000+0  37506-3 0  9993
2 57399  97.3837  98.7913 0003254 293.0937  66.9952 15.15311107 30539
TIANMU-1 08             
1 57400U 23101B   24037.86267209  .00006861  00000+0  36765-3 0  9999
2 57400  97.3824  98.6542 0005863 292.7720  67.2893 15.15294118 30528
TIANMU-1 09             
1 57401U 23101C   24037.91014001  .00007482  00000+0  40080-3 0  9991
2 57401  97.3780  98.6233 0006084 287.5558  72.5010 15.15273078 30537
TIANMU-1 10             
1 57402U 23101D   24037.87557168  .00006594  00000+0  35355-3 0  9995
2 57402  97.3859  98.7290 0008339 288.3189  71.7136 15.15276255 30522
FENGYUN 3F              
1 57490U 23111A   24037.87071451  .00000168  00000+0  10016-3 0  9997
2 57490  98.7862 108.1347 0001884 101.3164 258.8224 14.19763584 26634
TIANMU-1 11             
1 58645U 23205A   24037.90789809  .00006289  00000+0  34878-3 0  9993
2 58645  97.4181  66.3895 0012935 122.5169 237.7315 15.14046063  6647
TIANMU-1 12             
1 58646U 23205B   24037.91360482  .00006200  00000+0  34621-3 0  9996
2 58646  97.4167  66.3737 0011795 119.1426 241.0988 15.13820306  6630
TIANMU-1 13             
1 58647U 23205C   24037.85973268  .00005997  00000+0  33950-3 0  9998
2 58647  97.4198  66.3107 0012150 113.0855 247.1659 15.13336709  6621
TIANMU-1 14             
1 58648U 23205D   24037.91489218  .00005991  00000+0  33517-3 0  9996
2 58648  97.4121  66.3458 0012475 116.7872 243.4637 15.13760344  6638
TIANMU-1 19             
1 58660U 23208A   24037.91420720  .00008459  00000+0  47724-3 0  9993
2 58660  97.3998 153.8732 0012805 101.5790 258.6880 15.13328336  6301
TIANMU-1 20             
1 58661U 23208B   24037.69990464  .00007021  00000+0  38847-3 0  9996
2 58661  97.3920 153.6587 0012280 111.8385 248.4154 15.14093075  6271
TIANMU-1 21             
1 58662U 23208C   24037.89359062  .00005306  00000+0  29265-3 0  9990
2 58662  97.3964 153.8816 0011587 108.2605 251.9889 15.14327265  6300
TIANMU-1 22             
1 58663U 23208D   24037.88472062  .00007960  00000+0  43040-3 0  9991
2 58663  97.3978 153.9022 0011743 122.3734 237.8636 15.14876993  6300
TIANMU-1 15             
1 58700U 24004A   24037.77372132  .00004394  00000+0  25005-3 0  9992
2 58700  97.4578 221.4825 0011328 140.2646 219.9418 15.13308748  4888
TIANMU-1 16             
1 58701U 24004B   24037.89844325  .00007773  00000+0  42907-3 0  9998
2 58701  97.4503 221.5897 0012006 145.5031 214.6983 15.14151158  4901
TIANMU-1 17             
1 58702U 24004C   24037.89144304  .00007554  00000+0  41122-3 0  9994
2 58702  97.4547 221.6184 0011475 148.2887 211.9039 15.14660010  4890
TIANMU-1 18             
1 58703U 24004D   24037.88307017  .00007383  00000+0  39757-3 0  9997
2 58703  97.4560 221.6358 0012049 157.1829 202.9941 15.15049776  4895
VULCAN CENTAUR R/B      
1 58752U 24006B   24008.31572917  .00000148  00000+0  00000+0 0  9999
2 58752  30.0000  29.8668 0004000 321.7000 177.4980 15.23529836    08
